TDRS 3                  
1 19548U 88091B   21352.36458035 -.00000288  00000+0  00000+0 0  9997
2 19548  13.8424 352.7615 0039996 326.5068 210.3625  1.00270208108925
FLTSATCOM 8 (USA 46)    
1 20253U 89077A   21352.53221397 -.00000068  00000+0  00000+0 0  9991
2 20253  12.9104   1.4664 0001676 137.6886 211.6857  1.00271383244141
SKYNET 4C               
1 20776U 90079A   21352.16571726  .00000136  00000+0  00000+0 0  9993
2 20776  13.8560   1.4446 0003602 267.5312 271.4813  1.00268255114420
TDRS 5                  
1 21639U 91054B   21352.60656282  .00000095  00000+0  00000+0 0  9990
2 21639  14.2485   6.0894 0024156 350.7742 141.2781  1.00276600111256
TDRS 6                  
1 22314U 93003B   21352.39569640 -.00000285  00000+0  00000+0 0  9996
2 22314  14.1169   9.3106 0006320 111.1384  63.1145  1.00281964105945
UFO 2 (USA 95)          
1 22787U 93056A   21352.26924608  .00000137  00000+0  00000+0 0  9998
2 22787  11.4234  12.1375 0005651 250.4305 310.2100  1.00270238102089
USA 99 (MILSTAR-1 1)    
1 22988U 94009A   21352.19967767 -.00000188  00000+0  00000+0 0  9992
2 22988  15.0531  45.0495 0003593 217.5734 166.3190  1.00272588 16503
USA 107 (DSP 17)        
1 23435U 94084A   21352.61008928 -.00000155  00000+0  00000+0 0  9999
2 23435  14.5869   7.2283 0000944 187.9387  15.3076  1.00269663 16499
UFO 4 (USA 108)         
1 23467U 95003A   21352.43090404 -.00000010  00000+0  00000+0 0  9996
2 23467   9.8664  18.5461 0000998 195.9010 200.1556  1.00273108 98494
AMSC 1                  
1 23553U 95019A   21352.60154664 -.00000082  00000+0  00000+0 0  9996
2 23553  11.7785  27.4207 0005376 258.7586 270.3265  1.00271712 97713
TDRS 7                  
1 23613U 95035B   21352.61525399 -.00000192  00000+0  00000+0 0  9991
2 23613  14.0435 359.9886 0025544  41.7100 352.0781  1.00274170 96794
USA 113                 
1 23628U 95038A   21352.54215927 -.00000328  00000+0  00000+0 0  9996
2 23628  11.9203  26.2428 0002101 244.7965 115.2610  1.00268216 16508
USA 115 (MILSTAR-1 2)   
1 23712U 95060A   21352.59250413 -.00000008  00000+0  00000+0 0  9994
2 23712  13.4535  15.6403 0003464 255.0962 269.9942  1.00271146 16429
INMARSAT 3-F1           
1 23839U 96020A   21351.86448396 -.00000338  00000+0  00000+0 0  9995
2 23839   7.1686  59.2509 0003713 189.4661 281.0095  0.99997708 93830
INMARSAT 3-F2           
1 24307U 96053A   21352.20892038  .00000026  00000+0  00000+0 0  9990
2 24307   6.1107  68.3133 0001838 217.9451 245.3121  0.99999800 92503
AMC-1 (GE-1)            
1 24315U 96054A   21352.58159115  .00000081  00000+0  00000+0 0  9994
2 24315   5.1951  74.6504 0003664 194.9454 256.2857  1.00273136 29862
INMARSAT 3-F3           
1 24674U 96070A   21352.60168981 -.00000020  00000+0  00000+0 0  9998
2 24674   6.7482  62.9455 0004585 198.1146 295.0621  0.99980627 91493
GALAXY 25 (G-25)        
1 24812U 97026A   21352.53108014  .00000014  00000+0  00000+0 0  9999
2 24812   3.2443  85.4356 0005667 168.8830  90.3227  1.00270805 89917
INTELSAT 5 (IS-5)       
1 24916U 97046A   21352.63717024  .00000103  00000+0  00000+0 0  9993
2 24916   6.8454  62.2762 0004256 203.1040 274.4440  1.00270655 89168
AMC-3 (GE-3)            
1 24936U 97050A   21352.28817987 -.00000244  00000+0  00000+0 0  9997
2 24936   4.1048  81.1529 0003326 187.7750 209.9360  1.00272633 35975
USA 134                 
1 25019U 97065A   21352.59762727 -.00000050  00000+0  00000+0 0  9996
2 25019  10.8459  32.6164 0004002 294.5844 223.3325  1.00274663 16499
ASTRA 1G                
1 25071U 97076A   21352.13941076  .00000131  00000+0  00000+0 0  9991
2 25071   5.8335  69.6408 0003782 201.1605 245.7595  1.00274641 88041
INMARSAT 3-F5           
1 25153U 98006B   21352.39703897 -.00000274  00000+0  00000+0 0  9990
2 25153   5.9993  67.0474 0004870 200.3063 268.8026  1.00269968 87439
UFO 8 (USA 138)         
1 25258U 98016A   21352.53135160 -.00000013  00000+0  00000+0 0  9996
2 25258   9.2329  30.6231 0003805 224.2102 195.3136  1.00273330 87397
ASTRA 2A                
1 25462U 98050A   21352.52340493  .00000166  00000+0  00000+0 0  9995
2 25462   2.9551  87.4857 0002499 182.6192  33.6804  1.00276299 29871
JCSAT-4A                
1 25630U 99006A   21334.62410545 -.00000292  00000+0  00000+0 0  9992
2 25630   5.7790  70.3538 0012744 189.2364 170.7782  1.00268063 83361
SKYNET 4E               
1 25639U 99009B   21352.38174500 -.00000021  00000+0  00000+0 0  9995
2 25639  11.1567  17.9034 0002735 250.9726 314.5652  1.00274545 34922
NIMIQ 1                 
1 25740U 99027A   21351.84049769 -.00000179  00000+0  00000+0 0  9990
2 25740   2.4257  88.9688 0005473 180.4096  33.1732  1.00265716 82731
ABS-7                   
1 25894U 99046A   21352.23741882  .00000173  00000+0  00000+0 0  9993
2 25894   2.3099  89.5711 0003820 172.5747 303.7511  1.00271957 80662
ABS-6                   
1 25924U 99053A   21352.62414962 -.00000099  00000+0  00000+0 0  9992
2 25924   0.0245  13.4067 0002686 261.7617 196.0030  1.00271446 81393
AMC-4 (GE-4)            
1 25954U 99060A   21352.63888056  .00000107  00000+0  00000+0 0  9992
2 25954   1.0676  93.8454 0003432 177.4501 271.2642  1.00271714 27092
UFO 10 (USA 146)        
1 25967U 99063A   21352.36981345 -.00000172  00000+0  00000+0 0  9997
2 25967   8.4943  34.0225 0002523 217.7753 305.8737  1.00272675 80886
GALAXY 11 (G-11)        
1 26038U 99071A   21352.54485747 -.00000144  00000+0  00000+0 0  9990
2 26038   2.5677  90.0062 0000362 292.5892 167.8258  1.00272068 80622
USA 148                 
1 26052U 00001A   21352.54038966  .00000052  00000+0  00000+0 0  9995
2 26052   9.2550  43.4815 0002639 228.6225 190.0573  1.00270643 16500
ASIASTAR                
1 26107U 00016A   21352.50263955 -.00000319  00000+0  00000+0 0  9993
2 26107   5.2609  73.3933 0004636 191.4330 108.4553  1.00273907 79458
USA 149 (DSP 20)        
1 26356U 00024A   21352.34697054  .00000109  00000+0  00000+0 0  9997
2 26356  11.9506  22.6948 0002262 205.3993 178.8928  1.00286119 16457
TDRS 8                  
1 26388U 00034A   21352.13868784 -.00000221  00000+0  00000+0 0  9996
2 26388  10.0827  43.7999 0017122 322.7366 219.2649  1.00280521 78715
INTELSAT 9 (IS-9)       
1 26451U 00043A   21352.41078924 -.00000273  00000+0  00000+0 0  9994
2 26451   6.8315  62.4592 0003546 197.7166 284.9464  1.00270554 27680
NSS-11 (AAP-1)          
1 26554U 00059A   21352.59658219  .00000045  00000+0  00000+0 0  9991
2 26554   0.0182 332.1768 0003015 311.6410 194.3818  1.00271673 24849
USA 153                 
1 26575U 00065A   21352.54459897 -.00000312  00000+0  00000+0 0  9995
2 26575   8.7967  46.8095 0001714 222.9125 148.0877  1.00267751 16474
AMC-6 (GE-6)            
1 26580U 00067A   21351.77240872  .00000125  00000+0  00000+0 0  9999
2 26580   0.0196 326.1858 0003346 306.8326 312.6588  1.00270263 77453
INTELSAT 1R (IS-1R)     
1 26608U 00072A   21352.52051138 -.00000122  00000+0  00000+0 0  9993
2 26608   3.9832  82.0237 0001037  31.8207 317.9749  1.00271537 24858
ANIK F1                 
1 26624U 00076A   21352.60011815 -.00000042  00000+0  00000+0 0  9993
2 26624   0.9816  94.8450 0002650 143.9484 315.5099  1.00272519 26683
ASTRA 2D                
1 26638U 00081A   21351.87663462  .00000143  00000+0  00000+0 0  9994
2 26638   6.9122  61.5058 0002281 233.4904 131.0142  1.00268555 36441
AMC-8 (GE-8)            
1 26639U 00081B   21352.63895278  .00000106  00000+0  00000+0 0  9991
2 26639   1.9954  90.5003 0002634 177.2399 274.7542  1.00272753 76872
USA 157 (MILSTAR-2 2)   
1 26715U 01009A   21352.58807708  .00000027  00000+0  00000+0 0  9994
2 26715   9.8414  27.9884 0002889 224.4112 282.3935  1.00272037 16494
EUTELSAT 133 WEST A     
1 26719U 01011A   21352.58109249  .00000095  00000+0  00000+0 0  9991
2 26719   3.2720  84.4455 0002915 203.3040 235.9700  1.00272095 76083
INTELSAT 10 (IS-10)     
1 26766U 01019A   21352.59800471  .00000050  00000+0  00000+0 0  9998
2 26766   5.1530  74.8776 0004068 199.5704 206.0612  1.00273669 29164
INTELSAT 901 (IS-901)   
1 26824U 01024A   21351.06924682 -.00000183  00000+0  00000+0 0  9999
2 26824   0.0179   2.5738 0001480 301.5377 139.2346  1.00271459 75116
ASTRA 2C                
1 26853U 01025A   21352.28809265 -.00000242  00000+0  00000+0 0  9992
2 26853   4.1310  80.9473 0002865 184.4786 212.9021  1.00269542 28584
USA 159 (DSP 21)        
1 26880U 01033A   21352.43636103 -.00000286  00000+0  00000+0 0  9995
2 26880  11.2627  26.8919 0001396 218.8082 309.4480  1.00267264 16506
INTELSAT 902 (IS-902)   
1 26900U 01039A   21352.50788007 -.00000263  00000+0  00000+0 0  9998
2 26900   1.9538  90.9708 0003113 184.7528 304.3557  1.00270790 74230
USA 164 (MILSTAR-2 3)   
1 27168U 02001A   21352.32202190  .00000113  00000+0  00000+0 0  9992
2 27168   9.3200  29.7481 0002365 231.0822 321.1771  1.00272006 15180
ECHOSTAR 7              
1 27378U 02006A   21352.59228775  .00000020  00000+0  00000+0 0  9993
2 27378   0.0181 330.3446 0002180 266.1157 305.3714  1.00271826 34143
INTELSAT 904 (IS-904)   
1 27380U 02007A   21352.44019865 -.00000196  00000+0  00000+0 0  9994
2 27380   2.7875  87.8406 0003303 187.1458 301.2497  1.00271017 35303
TDRS 9                  
1 27389U 02011A   21352.40054103 -.00000274  00000+0  00000+0 0  9995
2 27389   8.6376  62.4606 0026632 285.6013 181.0442  1.00267335 73983
ASTRA 3A                
1 27400U 02015B   21352.20252727 -.00000190  00000+0  00000+0 0  9990
2 27400   7.0225  60.3445 0001828 203.4831 169.3344  1.00271725 72265
NSS-7                   
1 27414U 02019A   21352.44211747 -.00000142  00000+0  00000+0 0  9999
2 27414   5.4802  72.7649 0002428 202.3844 311.2783  1.00271639 72107
DIRECTV 5 (TEMPO 1)     
1 27426U 02023A   21352.59912108 -.00000036  00000+0  00000+0 0  9994
2 27426   0.6745  95.2545 0003618 178.8426 278.9030  1.00271270 71668
